{"RECORDS":[{"CCSDS_OMM_VERS":369.67,"CREATION_DATE":"2071-12-02T08:02:50.413Z","ORIGINATOR":"Mante, Jacobson and Greenholt","OBJECT_NAME":"@._I;^n_j>","OBJECT_ID":"5^DDV6)byH","CENTER_NAME":"V1edzH!4s|","REF_FRAME":4,"REF_FRAME_EPOCH":"2083-02-22T14:18:07.661Z","TIME_SYSTEM":5,"MEAN_ELEMENT_THEORY":1,"COMMENT":"5BUQsO#Py2","EPOCH":"2030-07-10T15:50:23.757Z","SEMI_MAJOR_AXIS":55639.96,"MEAN_MOTION":26864.44,"ECCENTRICITY":14030.15,"INCLINATION":52862.41,"RA_OF_ASC_NODE":43432.58,"ARG_OF_PERICENTER":78260.69,"MEAN_ANOMALY":20943.12,"GM":41228.58,"MASS":16408.47,"SOLAR_RAD_AREA":58790.32,"SOLAR_RAD_COEFF":84408.27,"DRAG_AREA":7266.68,"DRAG_COEFF":66200.9,"EPHEMERIS_TYPE":4,"CLASSIFICATION_TYPE":"^'HBrDLnNQ","NORAD_CAT_ID":3113733473,"ELEMENT_SET_NO":2192761345,"REV_AT_EPOCH":96011.43,"BSTAR":71431.67,"MEAN_MOTION_DOT":82103.29,"MEAN_MOTION_DDOT":26498.14,"COV_REF_FRAME":0,"CX_X":77107.02,"CY_X":49234.35,"CY_Y":75934.44,"CZ_X":73029.02,"CZ_Y":79803.81,"CZ_Z":14380.79,"CX_DOT_X":61741.67,"CX_DOT_Y":77950.46,"CX_DOT_Z":17010.32,"CX_DOT_X_DOT":9994.64,"CY_DOT_X":76648.17,"CY_DOT_Y":54209.53,"CY_DOT_Z":29571.76,"CY_DOT_X_DOT":95928.23,"CY_DOT_Y_DOT":94082.77,"CZ_DOT_X":97095.92,"CZ_DOT_Y":99357.13,"CZ_DOT_Z":48542.66,"CZ_DOT_X_DOT":34971.08,"CZ_DOT_Y_DOT":37680.75,"CZ_DOT_Z_DOT":75853.09,"USER_DEFINED_BIP_0044_TYPE":1072262214,"USER_DEFINED_OBJECT_DESIGNATOR":"xVGa-K3$\\=","USER_DEFINED_EARTH_MODEL":"pHK^&kTQ*#","USER_DEFINED_EPOCH_TIMESTAMP":35671.41,"USER_DEFINED_MICROSECONDS":15699.86}]}